FENGYUN 1C DEB          
1 37013U 99025ECV 17342.14300582  .00006800  00000-0  86409-3 0  9993
2 37013  98.4132 307.1102 0114164 303.1930  55.9000 14.77462806518393
